BY70-2                  
1 45857U 20042B   24141.49794412  .00162317  00000+0  64977-2 0  9993
2 45857  97.9071 233.3593 0008750 275.4644  84.5594 15.24316803210320
SALSAT                  
1 46495U 20068K   24141.43028651  .00011712  00000+0  67004-3 0  9996
2 46495  97.8144 100.0362 0015535  54.0777 306.1892 15.12720713200116
UVSQ-SAT                
1 47438U 21006AB  24141.15240794  .00063621  00000+0  13381-2 0  9994
2 47438  97.3294 201.3131 0004733 306.9544  53.1271 15.45080374184404
LEDSAT                  
1 49069U 21073D   24141.15671241  .00025670  00000+0  10591-2 0  9997
2 49069  97.4391 212.4929 0019456  26.6217 333.6014 15.23855659152187
XW-3 (CAS-9)            
1 50466U 21131B   24141.53348956  .00001832  00000+0  60047-3 0  9997
2 50466  98.5274 226.7328 0003959 192.3251 167.7841 14.39606557126028
TEVEL-3                 
1 50988U 22002E   24141.55189805  .00174517  00000+0  21331-2 0  9995
2 50988  97.3795 216.1784 0003036 158.1568 201.9818 15.59829057130731
TEVEL-8                 
1 50989U 22002F   24141.46242260  .00168298  00000+0  20742-2 0  9995
2 50989  97.3822 216.1767 0003260 159.1761 200.9629 15.59630298130713
TEVEL-5                 
1 50998U 22002Q   24141.57923106  .00220802  00000+0  22210-2 0  9994
2 50998  97.3786 217.4385 0002469 170.7893 189.3412 15.64728459130822
TEVEL-6                 
1 50999U 22002R   24141.45753612  .00218404  00000+0  22198-2 0  9995
2 50999  97.3781 217.2773 0002486 170.4427 189.6880 15.64472182130805
TEVEL-1                 
1 51013U 22002AF  24141.45147536  .00175397  00000+0  21623-2 0  9990
2 51013  97.3791 215.9369 0002841 156.1238 204.0151 15.59599938130712
TEVEL-7                 
1 51062U 22002CG  24141.45116680  .00175381  00000+0  21456-2 0  9997
2 51062  97.3809 216.1401 0002789 156.9749 203.1633 15.59802724130717
TEVEL-4                 
1 51063U 22002CH  24141.55267823  .00175330  00000+0  21803-2 0  9995
2 51063  97.3807 216.1485 0002843 152.1202 208.0208 15.59370286130727
TEVEL-2                 
1 51069U 22002CP  24141.54979613  .00178239  00000+0  21740-2 0  9998
2 51069  97.3793 216.1440 0002909 158.0190 202.1192 15.59872566130738
GREENCUBE               
1 53106U 22080B   24129.12370289 -.00000003  00000+0  00000+0 0  9999
2 53106  70.1412 206.4364 0007827 115.6229 244.5240  6.42557310 42692
MIET-AIS (RS28S)        
1 53377U 22096H   24140.97970198  .00481420  87933-4  17570-2 0  9990
2 53377  97.3833  61.1681 0007276 133.2466 226.9415 15.88361440100000
KAI-1 (RS26S)           
1 53378U 22096J   24141.56261149  .00131345  00000+0  13287-2 0  9990
2 53378  97.3974  59.0037 0005107 107.7320 252.4497 15.64859202 99906
ISOI (RS19S)            
1 53381U 22096M   24141.27016759  .00578696  13634-3  16698-2 0  9991
2 53381  97.3865  62.4675 0007075 143.7456 216.4299 15.93002955100114
SIREN (RS30S)           
1 53384U 22096Q   24140.66050036  .00247065  00000+0  15605-2 0  9991
2 53384  97.3907  59.9658 0005279 132.4078 227.7635 15.75896195 99893
CAS-5A (FO-118)         
1 54684U 22167C   24141.59014051  .00040545  00000+0  14530-2 0  9994
2 54684  97.6017 285.8030 0010473 238.2268 121.7951 15.28569092 80080
STRATOSAT-TK 1 (RS52S)  
1 57167U 23091B   24141.55666364  .00023923  00000+0  14092-2 0  9990
2 57167  97.6140 194.7175 0015397 208.5214 151.5174 15.11499744 49389
UMKA 1 (RS40S)          
1 57172U 23091G   24141.58452216  .00009496  00000+0  63265-3 0  9994
2 57172  97.6135 193.9134 0016327 210.8560 149.1710 15.07201687 49335
CUBESX-HSE 3 (RS42S)    
1 57178U 23091N   24141.43119828  .00013968  00000+0  89794-3 0  9997
2 57178  97.6174 194.1186 0017156 206.2490 153.7870 15.08406928 49329
MONITOR-4 (RS57S)       
1 57182U 23091S   24141.60952368  .00013044  00000+0  84849-3 0  9996
2 57182  97.6168 194.1406 0017317 205.7459 154.2908 15.07986799 49348
MONITOR-2 (RS39S)       
1 57184U 23091U   24141.61712335  .00009187  00000+0  61001-3 0  9995
2 57184  97.6174 194.3052 0013919 198.8747 161.1967 15.07365660 49353
SVYATOBOR 1 (RS60S)     
1 57187U 23091X   24141.60015409  .00011830  00000+0  75492-3 0  9992
2 57187  97.6173 194.6406 0013557 194.9812 165.1017 15.08764587 49373
VIZARD-METEO (RS38S)    
1 57189U 23091Z   24141.58007001  .00014905  00000+0  91759-3 0  9990
2 57189  97.6158 194.9425 0012674 193.3964 166.6930 15.10034138 49399
NANOZOND 1 (RS49S)      
1 57190U 23091AA  24141.49326387  .00021624  00000+0  12482-2 0  9994
2 57190  97.6140 195.2543 0011128 197.1796 162.9060 15.12301367 49414
POLYTECH-UNIVERSE 3 (R*)
1 57191U 23091AB  24141.55393588  .00009421  00000+0  62568-3 0  9991
2 57191  97.6139 193.9426 0018953 218.4602 141.5276 15.07284409 49338
UTMN 2 (RS27S)          
1 57203U 23091AP  24141.56248634  .00014734  00000+0  91805-3 0  9996
2 57203  97.6164 194.8094 0012968 194.2972 165.7891 15.09594353 49382
ARCCUBE 1 (RS25S)       
1 57205U 23091AR  24141.55586651  .00025025  00000+0  14050-2 0  9992
2 57205  97.6113 195.3905 0011327 198.0279 162.0551 15.13265768 49434
KUZGTU 1 (RS47S)        
1 57217U 23091AV  24141.50370998  .00014675  00000+0  94623-3 0  9999
2 57217  97.6145 194.0713 0017082 207.3114 152.7217 15.08285286 49336
HADES-D (SO-121)        
1 58567U 23174CY  24141.49478662  .00071526  00000+0  26711-2 0  9995
2 58567  97.4557 217.1929 0010978 321.7989  38.2470 15.27043886 29554
